H-2A R/B                
1 28932U 06002B   26077.64867368  .00008115  00000+0  40502-3 0  9990
2 28932  98.2422 225.4450 0052085 210.2238 149.5986 15.16612443 95798
RESURS-DK 1             
1 29228U 06021A   26077.79260842  .00002798  00000+0  16502-3 0  9994
2 29228  69.9333 213.4744 0000953 140.3222 219.8014 15.12808632 88900
CZ-4B R/B               
1 29507U 06046C   26077.84411082  .00003514  00000+0  17917-3 0  9999
2 29507  97.5573 122.7281 0031922 234.0273 125.7999 15.16994799 61438
CZ-2C R/B               
1 31114U 07010B   26077.88441946  .00000107  00000+0  68337-4 0  9992
2 31114  98.3987 190.7027 0057836 267.3507  92.1049 14.20249479981028
COSMO-SKYMED 1          
1 31598U 07023A   26077.82436841  .00002947  00000+0  26393-3 0  9993
2 31598  97.8881 268.9308 0001510  88.5563 271.5830 14.96610337 16279
COSMOS 2428             
1 31792U 07029A   26077.73807159 -.00000021  00000+0  14485-4 0  9991
2 31792  70.9440 184.3524 0009467 267.8609  92.1428 14.12947395965370
SL-16 R/B               
1 31793U 07029B   26077.70576468  .00000355  00000+0  20844-3 0  9999
2 31793  70.9756 153.4336 0002312 276.4825 255.1275 14.14838206966641
KORONAS-FOTON           
1 33504U 09003A   26077.77607640  .00011173  00000+0  24755-3 0  9994
2 33504  82.4270 266.4287 0011769 119.9731 240.2686 15.43538013947146
CZ-2C R/B               
1 37731U 11030B   26077.85995340  .00001416  00000+0  18458-3 0  9991
2 37731  97.8561  34.9405 0051655 321.9615  63.9088 14.81256020791452
H-2A R/B                
1 38341U 12025E   26077.89675997  .00002583  00000+0  23686-3 0  9996
2 38341  98.4742  45.6810 0043185 283.1732  76.4670 14.95231468749593
SHIJIAN-16 (SJ-16)      
1 39358U 13057A   26077.88026865  .00001616  00000+0  16035-3 0  9990
2 39358  74.9741 167.6911 0015300  89.0146 271.2795 14.92386198672874
SL-4 R/B                
1 39679U 14021B   26076.87385547  .00012320  00000+0  27196-3 0  9995
2 39679  51.6063 297.3446 0096816 132.8242 228.0930 15.39450841657534
